COSMOS 2550             
1 48865U 21056A   25317.77387571  .00007033  00000+0  21914-3 0  9990
2 48865  67.1444  31.6034 0008311 269.8361  90.1841 15.33866991245683
CZ-2C R/B               
1 52794U 22058K   25317.36200595  .00049171  00000+0  93146-3 0  9999
2 52794  50.1897 193.1411 0048784  76.5712 284.0686 15.46504803192088
GSLV R/B                
1 54149U 22138AN  25317.22379794  .00008425  00000+0  74771-3 0  9997
2 54149  87.3846 205.3525 0020080 209.0604 150.9511 14.95905114166514
XRISM                   
1 57800U 23137A   25317.28891507  .00014424  00000+0  86132-3 0  9991
2 57800  31.0031 315.6331 0008067 305.8202  54.1686 15.09905789120177
ACS3                    
1 59588U 24077B   25317.48542030  .00029134  00000+0  25994-1 0  9997
2 59588  97.3104 279.5884 0056798  25.0838 335.3063 13.83614992 78098
